#dP2022 12  4  0  0  0.00000000      96 __u+U ITR14 FIT  IAC
## 2239      0.00000000   900.00000000 59917 0.0000000000000
+  127   C01C02C03C04C05C06C07C08C09C10C11C12C13C14C16C19C20
+        C21C22C23C24C25C26C27C28C29C30C32C33C34C35C36C37C38
+        C39C40C41C42C43C44C45C46C60E01E02E03E04E05E07E09E10
+        E11E12E13E14E15E18E19E21E24E25E26E27E30E31E33E34E36
+        G01G02G03G04G05G06G07G08G09G10G11G12G13G14G15G16G17
+        G18G19G20G21G22G23G24G25G26G27G29G30G31G32J02J03J04
+        J07R01R02R03R04R05R06R07R08R09R10R11R12R13R14R15R17
+        R18R19R20R21R22R23R24R25  0  0  0  0  0  0  0  0  0
++        17 17 17 17 17  9  9 10  9  9  9  9  9  9  9  7  7
++         7  7  7  7  7  7  7  7  7  7  7  7  8  7  7  7  9
++         8  8  7  8  8  7  7  7 17  4  5  4  4  4  4  4  4
++         4  4  4  5  4  4  4  4  4  4  4  4  4  4  4  5  5
++         4  4  4  4  4  4  4  4  4  4  4  4  3  4  4  4  4
++         4  4  4  4  4  4  4  4  4  4  4  4  4  4  8  8  9
++        17  7  6  6  6  6 15  6  6  6 15  6  6  7  6  6  6
++         6  7  7  6  8 15  6  8  0  0  0  0  0  0  0  0  0
%c M  cc GPS ccc cccc cccc cccc cccc ccccc ccccc ccccc ccccc
%c cc cc ccc ccc cccc cccc cccc cccc ccccc ccccc ccccc ccccc
%f  0.0000000  0.000000000  0.00000000000  0.000000000000000
%f  0.0000000  0.000000000  0.00000000000  0.000000000000000
%i    0    0    0    0      0      0      0      0         0
%i    0    0    0    0      0      0      0      0         0
/* INFORMATION & ANALYSIS CENTER (IAC)            RAPID DATA
/* S/V CLOCKS ARE ALIGNED TO GNSS TIME                      
/* G:C1WC2W R:C1PC2P E:C1XC5X C:C2IC6I J:C1CC2S             
/* PCV:IGS14_2233 OL/AL:FES2004  NONE     YN ORB:CoN CLK:CoN
*  2022 12 04 11 45  0.00000000
PC01 -34367.946022  24463.309545   -661.980315    932.740047
PC02   4591.756675  41877.530157   -931.654457    280.769515
PC03 -14727.288167  39472.940529  -1200.725677    -98.672062
PC04 -39638.287240  14456.653862     30.947433    -48.453122
PC05  21950.158032  35971.578807  -1208.123572    -25.850404
PC06 -10653.904543  40663.913457    559.223401    224.101423
PC07  -2608.452935  29813.602372  29798.313967    123.231092
PC08 -17774.595910  23295.070012 -30397.603147    519.513771
PC09  -6312.216187  40523.076117   8856.839958   -791.067741
PC10   5481.227395  32585.073990  26744.281290     57.444707
PC11 -15047.645552  -3342.205040  23336.429910   -255.289688
PC12  -7804.530508 -21440.072566  16103.244534    330.324341
PC13  -9069.364179  24442.758750 -33055.430761    149.677142
PC14 -24198.353497  -8697.067054 -10769.856109    234.290047
PC16 -13839.129170  39361.512459  -4774.936864    107.202195
PC19  21295.428882    418.550445  18054.509961   -906.962433
PC20  23591.579114  14511.544121   3503.959014    817.090478
PC21 -11744.822604 -20905.090325  14273.347467   -930.494247
PC22   6619.773611 -14567.717873  22854.694518   -758.406273
PC23 -17779.621562  17459.084559  12573.019825   -873.074840
PC24 -18978.572835  -6960.172249 -19267.029166   -720.063126
PC25 -26163.238465   8984.376804  -3787.398826     34.399104
PC26  -2642.690074 -16460.816011 -22389.961814    -45.071683
PC27   2697.242325  26359.495010  -8752.674828     61.133187
PC28  -8910.424246  25194.943072   8052.919169     43.374009
PC29  15681.678577  -8996.050651 -21259.024513     49.190738
PC30  13356.727525  12972.701863 -20781.562410      1.136139
PC32  11842.065282  20814.592815 -14319.935666   -694.543194
PC33 -21353.097097   -368.777062 -17959.593237   -899.577041
PC34 -13796.560881 -11780.448327  21203.544653     53.612992
PC35   8955.023682 -24689.816871  -9482.924611    117.705534
PC36  26391.935340  -7909.933525   4410.350072   -792.650238
PC37    690.984935  16998.391102  22133.963430   -894.719832
PC38 -24027.528329  24714.016678 -24391.803321     42.615061
PC39 -14167.632561  38408.689107  -9660.940502     -1.000287
PC40  -6761.614737  24329.882126  33808.879467     -9.471338
PC41  -7137.565665  14245.932945 -22862.741107   -344.032553
PC42 -23257.117326 -15239.817225  -2242.289036   -786.368793
PC43 -15912.907060   8052.697785  21454.246650     28.356870
PC44  -3547.455565 -26358.368235   8493.904361    134.350291
PC45  17466.577104 -17480.581778 -12940.777251    -30.472243
PC46  20243.816097   5568.280713  18356.846652    -17.320365
PC60   7266.008921  41532.378197   -764.914881     -0.761995
PE01  12835.691436 -13918.838816 -22747.357706   -575.661539
PE02 -12579.761976  14017.211758  22839.643049      6.518019
PE03  -4196.624906  23065.965316 -18083.101584   -626.421628
PE04 -10208.982700 -27732.062026   1747.170480     -6.795387
PE05 -16465.581332   4709.903033 -24147.310134   -118.371431
PE07  18949.924581  16112.668343  16045.457389     -4.470975
PE09 -18868.476711 -16281.620713 -15969.363523   -752.004322
PE10  -8482.145195 -14688.251555  24256.098894   -495.394913
PE11 -16202.130948  -4735.444332  24311.173033   1021.519161
PE12   -170.853925 -21524.729511  20327.091858   -312.969137
PE13  15589.291673   5574.350530 -24527.993546    430.466890
PE14  -4634.359156 -24440.659092  -2162.009997     74.981485
PE15   -103.022682  21646.128298 -20178.950950    703.192159
PE18  14821.331676  26503.193964  -9574.737569   -667.881199
PE19   6128.654759 -21177.776301  19753.673987  -3830.596773
PE21  27159.060370  -4005.169951 -11056.667512   -498.380337
PE24 -26630.019453  -9647.646692  -8663.533048   -983.050800
PE25 -27309.273310   3801.173099  10789.582979   -594.164682
PE26  22059.302129 -14213.683170 -13676.250270  -1891.374177
PE27  27089.466122   8989.679313   7817.198783   -455.049531
PE30  10183.093700  16746.315879  22168.367244  -1050.647590
PE31 -11096.161549 -16553.307277 -21882.660873   -509.797075
PE33  15613.705549 -24834.370242   3971.253326   -455.655425
PE34 -15475.006766  24902.125248  -4126.051160    -17.892853
PE36 -21974.082390  13576.289791  14463.620797   -470.363248
PG01 -12738.900419  21732.318489  -8149.323086    242.461099
PG02   8712.551346 -23257.998843  10324.162029   -634.761086
PG03  -7857.009225  13331.551294 -21696.894947   -375.022773
PG04  -2464.053825  23147.363364 -12690.164696    -74.837699
PG05  20867.271978  -7002.500825  14775.221520   -106.774075
PG06  16334.548982   2337.928181 -20762.301192    533.006046
PG07    803.434735  19069.346632  18687.601548    279.102146
PG08  -9499.208660  14655.650493  19854.610970    -96.983632
PG09   7116.687948  25449.620596  -2491.296101   -258.820201
PG10 -21908.066899 -11536.213569  10194.737803    -14.625143
PG11  21378.019092  -8545.705032 -13203.066074    -50.688809
PG12   9653.481839 -12670.557754 -21509.590967   -311.909382
PG13  13800.105366  -6647.610498  21502.407793    436.052596
PG14  19878.736622  13375.304325  11595.684456    -73.597117
PG15   7885.897924 -16144.599717  19025.395601     -6.968789
PG16 -24051.065663    963.374940  11445.483020   -526.545572
PG17  12537.762471  20849.317023 -10116.328631    683.194530
PG18  -2027.974704 -17588.731409  19754.469832    -46.154327
PG19  15465.154972  11073.162869 -18878.761958    245.990396
PG20  26218.749068  -1207.939052   3197.756508    465.808007
PG21 -16918.649408  19850.635531   2244.596113    154.631062
PG22 -15841.355376  -7937.571136 -19419.206118    377.766647
PG23 -12557.514058 -14835.185647  18160.459318     -0.419710
PG24  13705.202674 -22285.324992  -3303.384413     31.022983
PG25  -2475.279023 -15945.421141 -21434.873922    398.840176
PG26 -26459.975211  -3888.359639   -111.025967    237.576633
PG27 -14882.798583   2345.005956  21675.067734    162.139353
PG29  -3432.639519 -25944.204743  -4316.260465   -571.700854
PG30  11556.301749  10776.841756  21436.523750   -535.928634
PG31 -17989.999762  -1291.605094 -19801.753667   -202.218084
PG32 -15271.142973 -17856.753572 -12424.048482   -317.978413
PJ02 -29498.030124  22505.333854  25036.289675     -0.248063
PJ03 -30143.633665  27318.623380  16060.066465     -5.935755
PJ04 -25646.339425  20549.996586 -21233.443803    114.333508
PJ07 -25414.783289  33648.123198    -28.691241      0.039040
PR01   4744.764870 -10695.174878  22661.668606     18.965754
PR02 -10472.283981 -19924.935160  12106.719567    -23.408548
PR03 -18693.311683 -16637.732893  -5072.925461     68.457468
PR04 -16186.949675  -4414.986795 -19197.842404    167.310265
PR05  -5013.860243  10278.036728 -22791.915195    103.981380
PR06  11806.396640  19685.661917 -11109.539882    -83.555395
PR07  18786.487640  16156.203248   5971.507891     45.476870
PR08  16191.932919   4052.932098  19326.571999    -68.419047
PR09   1668.328334  11235.856747  22852.868637     91.147902
PR10  17067.508778   4840.239544  18283.057361    -88.379445
PR11  24920.771566  -4815.072880   2610.844355     17.081804
PR12  16834.309854 -11473.817333 -15313.666218     23.370723
PR13    340.821564 -11367.250736 -22848.804850    -29.590486
PR14 -18429.430187  -4122.931235 -17130.968452     24.077177
PR15 -24953.705924   5072.142178  -1494.087996     92.556752
PR17  -7215.162655 -10526.053928  22093.428073    583.904806
PR18 -12297.806123   6957.335248  21246.550723     55.149137
PR19 -12030.360169  19900.789499  10498.651115   -213.313233
PR20  -3577.665673  23166.284303  -9999.962597    -83.314766
PR21   7782.184386   8994.382336 -22562.815132   -354.812571
PR22  13025.707839  -7241.870765 -20673.370275     19.620418
PR23  10180.897395 -22699.230092  -5634.101322    -64.370087
PR24   2295.442622 -23109.867798  10554.925768    130.590979
PR25   6722.263338  11426.499937 -21787.362894     48.010092
EOF
